{"fetched_at":"2026-07-10T07:59:28.960Z","source":"https://celestrak.org/NORAD/elements/gp.php?NAME=WORLDVIEW&FORMAT=JSON","constellation":"worldview","records":[{"OBJECT_NAME":"WORLDVIEW-1 (WV-1)","OBJECT_ID":"2007-041A","EPOCH":"2026-07-09T17:48:00.444384","CLASSIFICATION_TYPE":"U","MEAN_MOTION":15.24519488,"ECCENTRICITY":0.0001065,"INCLINATION":97.3891,"RA_OF_ASC_NODE":310.1675,"ARG_OF_PERICENTER":238.8117,"MEAN_ANOMALY":121.3016,"EPHEMERIS_TYPE":0,"NORAD_CAT_ID":32060,"ELEMENT_SET_NO":999,"REV_AT_EPOCH":4631,"BSTAR":0.00017496,"MEAN_MOTION_DOT":0.00004232,"MEAN_MOTION_DDOT":0},{"OBJECT_NAME":"WORLDVIEW-2 (WV-2)","OBJECT_ID":"2009-055A","EPOCH":"2026-07-09T18:42:04.542336","CLASSIFICATION_TYPE":"U","MEAN_MOTION":14.37905981,"ECCENTRICITY":0.000508,"INCLINATION":98.4758,"RA_OF_ASC_NODE":263.921,"ARG_OF_PERICENTER":142.9156,"MEAN_ANOMALY":217.2382,"EPHEMERIS_TYPE":0,"NORAD_CAT_ID":35946,"ELEMENT_SET_NO":999,"REV_AT_EPOCH":87889,"BSTAR":0.000029072,"MEAN_MOTION_DOT":4.4e-7,"MEAN_MOTION_DDOT":0},{"OBJECT_NAME":"WORLDVIEW-3 (WV-3)","OBJECT_ID":"2014-048A","EPOCH":"2026-07-09T19:21:54.402624","CLASSIFICATION_TYPE":"U","MEAN_MOTION":14.85059044,"ECCENTRICITY":0.0000878,"INCLINATION":97.8558,"RA_OF_ASC_NODE":265.3269,"ARG_OF_PERICENTER":163.1685,"MEAN_ANOMALY":196.9559,"EPHEMERIS_TYPE":0,"NORAD_CAT_ID":40115,"ELEMENT_SET_NO":999,"REV_AT_EPOCH":64526,"BSTAR":0.000065433,"MEAN_MOTION_DOT":0.00000506,"MEAN_MOTION_DDOT":0}]}
