WORLDVIEW-1 (WV-1)      
1 32060U 07041A   26190.74167181  .00004232  00000+0  17496-3 0  9996
2 32060  97.3891 310.1675 0001065 238.8117 121.3016 15.24519488 46310
WORLDVIEW-2 (WV-2)      
1 35946U 09055A   26190.77921924  .00000044  00000+0  29072-4 0  9996
2 35946  98.4758 263.9210 0005080 142.9156 217.2382 14.37905981878896
WORLDVIEW-3 (WV-3)      
1 40115U 14048A   26190.80687966  .00000506  00000+0  65433-4 0  9991
2 40115  97.8558 265.3269 0000878 163.1685 196.9559 14.85059044645268
